{
"RECORDS":[
{
"CITY_ID":1,
"CITY_NAME":"北京市",
"ZIPCODE":"100000",
"PROVINCE_ID":1
},
{
"CITY_ID":2,
"CITY_NAME":"天津市",
"ZIPCODE":"100000",
"PROVINCE_ID":2
},
{
"CITY_ID":3,
"CITY_NAME":"石家庄市",
"ZIPCODE":"050000",
"PROVINCE_ID":3
},
{
"CITY_ID":4,
"CITY_NAME":"唐山市",
"ZIPCODE":"063000",
"PROVINCE_ID":3
},
{
"CITY_ID":5,
"CITY_NAME":"秦皇岛市",
"ZIPCODE":"066000",
"PROVINCE_ID":3
},
{
"CITY_ID":6,
"CITY_NAME":"邯郸市",
"ZIPCODE":"056000",
"PROVINCE_ID":3
},
{
"CITY_ID":7,
"CITY_NAME":"邢台市",
"ZIPCODE":"054000",
"PROVINCE_ID":3
},
{
"CITY_ID":8,
"CITY_NAME":"保定市",
"ZIPCODE":"071000",
"PROVINCE_ID":3
},
{
"CITY_ID":9,
"CITY_NAME":"张家口市",
"ZIPCODE":"075000",
"PROVINCE_ID":3
},
{
"CITY_ID":10,
"CITY_NAME":"承德市",
"ZIPCODE":"067000",
"PROVINCE_ID":3
},
{
"CITY_ID":11,
"CITY_NAME":"沧州市",
"ZIPCODE":"061000",
"PROVINCE_ID":3
},
{
"CITY_ID":12,
"CITY_NAME":"廊坊市",
"ZIPCODE":"065000",
"PROVINCE_ID":3
},
{
"CITY_ID":13,
"CITY_NAME":"衡水市",
"ZIPCODE":"053000",
"PROVINCE_ID":3
},
{
"CITY_ID":14,
"CITY_NAME":"太原市",
"ZIPCODE":"030000",
"PROVINCE_ID":4
},
{
"CITY_ID":15,
"CITY_NAME":"大同市",
"ZIPCODE":"037000",
"PROVINCE_ID":4
},
{
"CITY_ID":16,
"CITY_NAME":"阳泉市",
"ZIPCODE":"045000",
"PROVINCE_ID":4
},
{
"CITY_ID":17,
"CITY_NAME":"长治市",
"ZIPCODE":"046000",
"PROVINCE_ID":4
},
{
"CITY_ID":18,
"CITY_NAME":"晋城市",
"ZIPCODE":"048000",
"PROVINCE_ID":4
},
{
"CITY_ID":19,
"CITY_NAME":"朔州市",
"ZIPCODE":"036000",
"PROVINCE_ID":4
},
{
"CITY_ID":20,
"CITY_NAME":"晋中市",
"ZIPCODE":"030600",
"PROVINCE_ID":4
},
{
"CITY_ID":21,
"CITY_NAME":"运城市",
"ZIPCODE":"044000",
"PROVINCE_ID":4
},
{
"CITY_ID":22,
"CITY_NAME":"忻州市",
"ZIPCODE":"034000",
"PROVINCE_ID":4
},
{
"CITY_ID":23,
"CITY_NAME":"临汾市",
"ZIPCODE":"041000",
"PROVINCE_ID":4
},
{
"CITY_ID":24,
"CITY_NAME":"吕梁市",
"ZIPCODE":"030500",
"PROVINCE_ID":4
},
{
"CITY_ID":25,
"CITY_NAME":"呼和浩特市",
"ZIPCODE":"010000",
"PROVINCE_ID":5
},
{
"CITY_ID":26,
"CITY_NAME":"包头市",
"ZIPCODE":"014000",
"PROVINCE_ID":5
},
{
"CITY_ID":27,
"CITY_NAME":"乌海市",
"ZIPCODE":"016000",
"PROVINCE_ID":5
},
{
"CITY_ID":28,
"CITY_NAME":"赤峰市",
"ZIPCODE":"024000",
"PROVINCE_ID":5
},
{
"CITY_ID":29,
"CITY_NAME":"通辽市",
"ZIPCODE":"028000",
"PROVINCE_ID":5
},
{
"CITY_ID":30,
"CITY_NAME":"鄂尔多斯市",
"ZIPCODE":"010300",
"PROVINCE_ID":5
},
{
"CITY_ID":31,
"CITY_NAME":"呼伦贝尔市",
"ZIPCODE":"021000",
"PROVINCE_ID":5
},
{
"CITY_ID":32,
"CITY_NAME":"巴彦淖尔市",
"ZIPCODE":"014400",
"PROVINCE_ID":5
},
{
"CITY_ID":33,
"CITY_NAME":"乌兰察布市",
"ZIPCODE":"011800",
"PROVINCE_ID":5
},
{
"CITY_ID":34,
"CITY_NAME":"兴安盟",
"ZIPCODE":"137500",
"PROVINCE_ID":5
},
{
"CITY_ID":35,
"CITY_NAME":"锡林郭勒盟",
"ZIPCODE":"011100",
"PROVINCE_ID":5
},
{
"CITY_ID":36,
"CITY_NAME":"阿拉善盟",
"ZIPCODE":"016000",
"PROVINCE_ID":5
},
{
"CITY_ID":37,
"CITY_NAME":"沈阳市",
"ZIPCODE":"110000",
"PROVINCE_ID":6
},
{
"CITY_ID":38,
"CITY_NAME":"大连市",
"ZIPCODE":"116000",
"PROVINCE_ID":6
},
{
"CITY_ID":39,
"CITY_NAME":"鞍山市",
"ZIPCODE":"114000",
"PROVINCE_ID":6
},
{
"CITY_ID":40,
"CITY_NAME":"抚顺市",
"ZIPCODE":"113000",
"PROVINCE_ID":6
},
{
"CITY_ID":41,
"CITY_NAME":"本溪市",
"ZIPCODE":"117000",
"PROVINCE_ID":6
},
{
"CITY_ID":42,
"CITY_NAME":"丹东市",
"ZIPCODE":"118000",
"PROVINCE_ID":6
},
{
"CITY_ID":43,
"CITY_NAME":"锦州市",
"ZIPCODE":"121000",
"PROVINCE_ID":6
},
{
"CITY_ID":44,
"CITY_NAME":"营口市",
"ZIPCODE":"115000",
"PROVINCE_ID":6
},
{
"CITY_ID":45,
"CITY_NAME":"阜新市",
"ZIPCODE":"123000",
"PROVINCE_ID":6
},
{
"CITY_ID":46,
"CITY_NAME":"辽阳市",
"ZIPCODE":"111000",
"PROVINCE_ID":6
},
{
"CITY_ID":47,
"CITY_NAME":"盘锦市",
"ZIPCODE":"124000",
"PROVINCE_ID":6
},
{
"CITY_ID":48,
"CITY_NAME":"铁岭市",
"ZIPCODE":"112000",
"PROVINCE_ID":6
},
{
"CITY_ID":49,
"CITY_NAME":"朝阳市",
"ZIPCODE":"122000",
"PROVINCE_ID":6
},
{
"CITY_ID":50,
"CITY_NAME":"葫芦岛市",
"ZIPCODE":"125000",
"PROVINCE_ID":6
},
{
"CITY_ID":51,
"CITY_NAME":"长春市",
"ZIPCODE":"130000",
"PROVINCE_ID":7
},
{
"CITY_ID":52,
"CITY_NAME":"吉林市",
"ZIPCODE":"132000",
"PROVINCE_ID":7
},
{
"CITY_ID":53,
"CITY_NAME":"四平市",
"ZIPCODE":"136000",
"PROVINCE_ID":7
},
{
"CITY_ID":54,
"CITY_NAME":"辽源市",
"ZIPCODE":"136200",
"PROVINCE_ID":7
},
{
"CITY_ID":55,
"CITY_NAME":"通化市",
"ZIPCODE":"134000",
"PROVINCE_ID":7
},
{
"CITY_ID":56,
"CITY_NAME":"白山市",
"ZIPCODE":"134300",
"PROVINCE_ID":7
},
{
"CITY_ID":57,
"CITY_NAME":"松原市",
"ZIPCODE":"131100",
"PROVINCE_ID":7
},
{
"CITY_ID":58,
"CITY_NAME":"白城市",
"ZIPCODE":"137000",
"PROVINCE_ID":7
},
{
"CITY_ID":59,
"CITY_NAME":"延边朝鲜族自治州",
"ZIPCODE":"133000",
"PROVINCE_ID":7
},
{
"CITY_ID":60,
"CITY_NAME":"哈尔滨市",
"ZIPCODE":"150000",
"PROVINCE_ID":8
},
{
"CITY_ID":61,
"CITY_NAME":"齐齐哈尔市",
"ZIPCODE":"161000",
"PROVINCE_ID":8
},
{
"CITY_ID":62,
"CITY_NAME":"鸡西市",
"ZIPCODE":"158100",
"PROVINCE_ID":8
},
{
"CITY_ID":63,
"CITY_NAME":"鹤岗市",
"ZIPCODE":"154100",
"PROVINCE_ID":8
},
{
"CITY_ID":64,
"CITY_NAME":"双鸭山市",
"ZIPCODE":"155100",
"PROVINCE_ID":8
},
{
"CITY_ID":65,
"CITY_NAME":"大庆市",
"ZIPCODE":"163000",
"PROVINCE_ID":8
},
{
"CITY_ID":66,
"CITY_NAME":"伊春市",
"ZIPCODE":"152300",
"PROVINCE_ID":8
},
{
"CITY_ID":67,
"CITY_NAME":"佳木斯市",
"ZIPCODE":"154000",
"PROVINCE_ID":8
},
{
"CITY_ID":68,
"CITY_NAME":"七台河市",
"ZIPCODE":"154600",
"PROVINCE_ID":8
},
{
"CITY_ID":69,
"CITY_NAME":"牡丹江市",
"ZIPCODE":"157000",
"PROVINCE_ID":8
},
{
"CITY_ID":70,
"CITY_NAME":"黑河市",
"ZIPCODE":"164300",
"PROVINCE_ID":8
},
{
"CITY_ID":71,
"CITY_NAME":"绥化市",
"ZIPCODE":"152000",
"PROVINCE_ID":8
},
{
"CITY_ID":72,
"CITY_NAME":"大兴安岭地区",
"ZIPCODE":"165000",
"PROVINCE_ID":8
},
{
"CITY_ID":73,
"CITY_NAME":"上海市",
"ZIPCODE":"200000",
"PROVINCE_ID":9
},
{
"CITY_ID":74,
"CITY_NAME":"南京市",
"ZIPCODE":"210000",
"PROVINCE_ID":10
},
{
"CITY_ID":75,
"CITY_NAME":"无锡市",
"ZIPCODE":"214000",
"PROVINCE_ID":10
},
{
"CITY_ID":76,
"CITY_NAME":"徐州市",
"ZIPCODE":"221000",
"PROVINCE_ID":10
},
{
"CITY_ID":77,
"CITY_NAME":"常州市",
"ZIPCODE":"213000",
"PROVINCE_ID":10
},
{
"CITY_ID":78,
"CITY_NAME":"苏州市",
"ZIPCODE":"215000",
"PROVINCE_ID":10
},
{
"CITY_ID":79,
"CITY_NAME":"南通市",
"ZIPCODE":"226000",
"PROVINCE_ID":10
},
{
"CITY_ID":80,
"CITY_NAME":"连云港市",
"ZIPCODE":"222000",
"PROVINCE_ID":10
},
{
"CITY_ID":81,
"CITY_NAME":"淮安市",
"ZIPCODE":"223200",
"PROVINCE_ID":10
},
{
"CITY_ID":82,
"CITY_NAME":"盐城市",
"ZIPCODE":"224000",
"PROVINCE_ID":10
},
{
"CITY_ID":83,
"CITY_NAME":"扬州市",
"ZIPCODE":"225000",
"PROVINCE_ID":10
},
{
"CITY_ID":84,
"CITY_NAME":"镇江市",
"ZIPCODE":"212000",
"PROVINCE_ID":10
},
{
"CITY_ID":85,
"CITY_NAME":"泰州市",
"ZIPCODE":"225300",
"PROVINCE_ID":10
},
{
"CITY_ID":86,
"CITY_NAME":"宿迁市",
"ZIPCODE":"223800",
"PROVINCE_ID":10
},
{
"CITY_ID":87,
"CITY_NAME":"杭州市",
"ZIPCODE":"310000",
"PROVINCE_ID":11
},
{
"CITY_ID":88,
"CITY_NAME":"宁波市",
"ZIPCODE":"315000",
"PROVINCE_ID":11
},
{
"CITY_ID":89,
"CITY_NAME":"温州市",
"ZIPCODE":"325000",
"PROVINCE_ID":11
},
{
"CITY_ID":90,
"CITY_NAME":"嘉兴市",
"ZIPCODE":"314000",
"PROVINCE_ID":11
},
{
"CITY_ID":91,
"CITY_NAME":"湖州市",
"ZIPCODE":"313000",
"PROVINCE_ID":11
},
{
"CITY_ID":92,
"CITY_NAME":"绍兴市",
"ZIPCODE":"312000",
"PROVINCE_ID":11
},
{
"CITY_ID":93,
"CITY_NAME":"金华市",
"ZIPCODE":"321000",
"PROVINCE_ID":11
},
{
"CITY_ID":94,
"CITY_NAME":"衢州市",
"ZIPCODE":"324000",
"PROVINCE_ID":11
},
{
"CITY_ID":95,
"CITY_NAME":"舟山市",
"ZIPCODE":"316000",
"PROVINCE_ID":11
},
{
"CITY_ID":96,
"CITY_NAME":"台州市",
"ZIPCODE":"318000",
"PROVINCE_ID":11
},
{
"CITY_ID":97,
"CITY_NAME":"丽水市",
"ZIPCODE":"323000",
"PROVINCE_ID":11
},
{
"CITY_ID":98,
"CITY_NAME":"合肥市",
"ZIPCODE":"230000",
"PROVINCE_ID":12
},
{
"CITY_ID":99,
"CITY_NAME":"芜湖市",
"ZIPCODE":"241000",
"PROVINCE_ID":12
},
{
"CITY_ID":100,
"CITY_NAME":"蚌埠市",
"ZIPCODE":"233000",
"PROVINCE_ID":12
},
{
"CITY_ID":101,
"CITY_NAME":"淮南市",
"ZIPCODE":"232000",
"PROVINCE_ID":12
},
{
"CITY_ID":102,
"CITY_NAME":"马鞍山市",
"ZIPCODE":"243000",
"PROVINCE_ID":12
},
{
"CITY_ID":103,
"CITY_NAME":"淮北市",
"ZIPCODE":"235000",
"PROVINCE_ID":12
},
{
"CITY_ID":104,
"CITY_NAME":"铜陵市",
"ZIPCODE":"244000",
"PROVINCE_ID":12
},
{
"CITY_ID":105,
"CITY_NAME":"安庆市",
"ZIPCODE":"246000",
"PROVINCE_ID":12
},
{
"CITY_ID":106,
"CITY_NAME":"黄山市",
"ZIPCODE":"242700",
"PROVINCE_ID":12
},
{
"CITY_ID":107,
"CITY_NAME":"滁州市",
"ZIPCODE":"239000",
"PROVINCE_ID":12
},
{
"CITY_ID":108,
"CITY_NAME":"阜阳市",
"ZIPCODE":"236100",
"PROVINCE_ID":12
},
{
"CITY_ID":109,
"CITY_NAME":"宿州市",
"ZIPCODE":"234100",
"PROVINCE_ID":12
},
{
"CITY_ID":110,
"CITY_NAME":"巢湖市",
"ZIPCODE":"238000",
"PROVINCE_ID":12
},
{
"CITY_ID":111,
"CITY_NAME":"六安市",
"ZIPCODE":"237000",
"PROVINCE_ID":12
},
{
"CITY_ID":112,
"CITY_NAME":"亳州市",
"ZIPCODE":"236800",
"PROVINCE_ID":12
},
{
"CITY_ID":113,
"CITY_NAME":"池州市",
"ZIPCODE":"247100",
"PROVINCE_ID":12
},
{
"CITY_ID":114,
"CITY_NAME":"宣城市",
"ZIPCODE":"366000",
"PROVINCE_ID":12
},
{
"CITY_ID":115,
"CITY_NAME":"福州市",
"ZIPCODE":"350000",
"PROVINCE_ID":13
},
{
"CITY_ID":116,
"CITY_NAME":"厦门市",
"ZIPCODE":"361000",
"PROVINCE_ID":13
},
{
"CITY_ID":117,
"CITY_NAME":"莆田市",
"ZIPCODE":"351100",
"PROVINCE_ID":13
},
{
"CITY_ID":118,
"CITY_NAME":"三明市",
"ZIPCODE":"365000",
"PROVINCE_ID":13
},
{
"CITY_ID":119,
"CITY_NAME":"泉州市",
"ZIPCODE":"362000",
"PROVINCE_ID":13
},
{
"CITY_ID":120,
"CITY_NAME":"漳州市",
"ZIPCODE":"363000",
"PROVINCE_ID":13
},
{
"CITY_ID":121,
"CITY_NAME":"南平市",
"ZIPCODE":"353000",
"PROVINCE_ID":13
},
{
"CITY_ID":122,
"CITY_NAME":"龙岩市",
"ZIPCODE":"364000",
"PROVINCE_ID":13
},
{
"CITY_ID":123,
"CITY_NAME":"宁德市",
"ZIPCODE":"352100",
"PROVINCE_ID":13
},
{
"CITY_ID":124,
"CITY_NAME":"南昌市",
"ZIPCODE":"330000",
"PROVINCE_ID":14
},
{
"CITY_ID":125,
"CITY_NAME":"景德镇市",
"ZIPCODE":"333000",
"PROVINCE_ID":14
},
{
"CITY_ID":126,
"CITY_NAME":"萍乡市",
"ZIPCODE":"337000",
"PROVINCE_ID":14
},
{
"CITY_ID":127,
"CITY_NAME":"九江市",
"ZIPCODE":"332000",
"PROVINCE_ID":14
},
{
"CITY_ID":128,
"CITY_NAME":"新余市",
"ZIPCODE":"338000",
"PROVINCE_ID":14
},
{
"CITY_ID":129,
"CITY_NAME":"鹰潭市",
"ZIPCODE":"335000",
"PROVINCE_ID":14
},
{
"CITY_ID":130,
"CITY_NAME":"赣州市",
"ZIPCODE":"341000",
"PROVINCE_ID":14
},
{
"CITY_ID":131,
"CITY_NAME":"吉安市",
"ZIPCODE":"343000",
"PROVINCE_ID":14
},
{
"CITY_ID":132,
"CITY_NAME":"宜春市",
"ZIPCODE":"336000",
"PROVINCE_ID":14
},
{
"CITY_ID":133,
"CITY_NAME":"抚州市",
"ZIPCODE":"332900",
"PROVINCE_ID":14
},
{
"CITY_ID":134,
"CITY_NAME":"上饶市",
"ZIPCODE":"334000",
"PROVINCE_ID":14
},
{
"CITY_ID":135,
"CITY_NAME":"济南市",
"ZIPCODE":"250000",
"PROVINCE_ID":15
},
{
"CITY_ID":136,
"CITY_NAME":"青岛市",
"ZIPCODE":"266000",
"PROVINCE_ID":15
},
{
"CITY_ID":137,
"CITY_NAME":"淄博市",
"ZIPCODE":"255000",
"PROVINCE_ID":15
},
{
"CITY_ID":138,
"CITY_NAME":"枣庄市",
"ZIPCODE":"277100",
"PROVINCE_ID":15
},
{
"CITY_ID":139,
"CITY_NAME":"东营市",
"ZIPCODE":"257000",
"PROVINCE_ID":15
},
{
"CITY_ID":140,
"CITY_NAME":"烟台市",
"ZIPCODE":"264000",
"PROVINCE_ID":15
},
{
"CITY_ID":141,
"CITY_NAME":"潍坊市",
"ZIPCODE":"261000",
"PROVINCE_ID":15
},
{
"CITY_ID":142,
"CITY_NAME":"济宁市",
"ZIPCODE":"272100",
"PROVINCE_ID":15
},
{
"CITY_ID":143,
"CITY_NAME":"泰安市",
"ZIPCODE":"271000",
"PROVINCE_ID":15
},
{
"CITY_ID":144,
"CITY_NAME":"威海市",
"ZIPCODE":"265700",
"PROVINCE_ID":15
},
{
"CITY_ID":145,
"CITY_NAME":"日照市",
"ZIPCODE":"276800",
"PROVINCE_ID":15
},
{
"CITY_ID":146,
"CITY_NAME":"莱芜市",
"ZIPCODE":"271100",
"PROVINCE_ID":15
},
{
"CITY_ID":147,
"CITY_NAME":"临沂市",
"ZIPCODE":"276000",
"PROVINCE_ID":15
},
{
"CITY_ID":148,
"CITY_NAME":"德州市",
"ZIPCODE":"253000",
"PROVINCE_ID":15
},
{
"CITY_ID":149,
"CITY_NAME":"聊城市",
"ZIPCODE":"252000",
"PROVINCE_ID":15
},
{
"CITY_ID":150,
"CITY_NAME":"滨州市",
"ZIPCODE":"256600",
"PROVINCE_ID":15
},
{
"CITY_ID":151,
"CITY_NAME":"荷泽市",
"ZIPCODE":"255000",
"PROVINCE_ID":15
},
{
"CITY_ID":152,
"CITY_NAME":"郑州市",
"ZIPCODE":"450000",
"PROVINCE_ID":16
},
{
"CITY_ID":153,
"CITY_NAME":"开封市",
"ZIPCODE":"475000",
"PROVINCE_ID":16
},
{
"CITY_ID":154,
"CITY_NAME":"洛阳市",
"ZIPCODE":"471000",
"PROVINCE_ID":16
},
{
"CITY_ID":155,
"CITY_NAME":"平顶山市",
"ZIPCODE":"467000",
"PROVINCE_ID":16
},
{
"CITY_ID":156,
"CITY_NAME":"安阳市",
"ZIPCODE":"454900",
"PROVINCE_ID":16
},
{
"CITY_ID":157,
"CITY_NAME":"鹤壁市",
"ZIPCODE":"456600",
"PROVINCE_ID":16
},
{
"CITY_ID":158,
"CITY_NAME":"新乡市",
"ZIPCODE":"453000",
"PROVINCE_ID":16
},
{
"CITY_ID":159,
"CITY_NAME":"焦作市",
"ZIPCODE":"454100",
"PROVINCE_ID":16
},
{
"CITY_ID":160,
"CITY_NAME":"濮阳市",
"ZIPCODE":"457000",
"PROVINCE_ID":16
},
{
"CITY_ID":161,
"CITY_NAME":"许昌市",
"ZIPCODE":"461000",
"PROVINCE_ID":16
},
{
"CITY_ID":162,
"CITY_NAME":"漯河市",
"ZIPCODE":"462000",
"PROVINCE_ID":16
},
{
"CITY_ID":163,
"CITY_NAME":"三门峡市",
"ZIPCODE":"472000",
"PROVINCE_ID":16
},
{
"CITY_ID":164,
"CITY_NAME":"南阳市",
"ZIPCODE":"473000",
"PROVINCE_ID":16
},
{
"CITY_ID":165,
"CITY_NAME":"商丘市",
"ZIPCODE":"476000",
"PROVINCE_ID":16
},
{
"CITY_ID":166,
"CITY_NAME":"信阳市",
"ZIPCODE":"464000",
"PROVINCE_ID":16
},
{
"CITY_ID":167,
"CITY_NAME":"周口市",
"ZIPCODE":"466000",
"PROVINCE_ID":16
},
{
"CITY_ID":168,
"CITY_NAME":"驻马店市",
"ZIPCODE":"463000",
"PROVINCE_ID":16
},
{
"CITY_ID":169,
"CITY_NAME":"武汉市",
"ZIPCODE":"430000",
"PROVINCE_ID":17
},
{
"CITY_ID":170,
"CITY_NAME":"黄石市",
"ZIPCODE":"435000",
"PROVINCE_ID":17
},
{
"CITY_ID":171,
"CITY_NAME":"十堰市",
"ZIPCODE":"442000",
"PROVINCE_ID":17
},
{
"CITY_ID":172,
"CITY_NAME":"宜昌市",
"ZIPCODE":"443000",
"PROVINCE_ID":17
},
{
"CITY_ID":173,
"CITY_NAME":"襄樊市",
"ZIPCODE":"441000",
"PROVINCE_ID":17
},
{
"CITY_ID":174,
"CITY_NAME":"鄂州市",
"ZIPCODE":"436000",
"PROVINCE_ID":17
},
{
"CITY_ID":175,
"CITY_NAME":"荆门市",
"ZIPCODE":"448000",
"PROVINCE_ID":17
},
{
"CITY_ID":176,
"CITY_NAME":"孝感市",
"ZIPCODE":"432100",
"PROVINCE_ID":17
},
{
"CITY_ID":177,
"CITY_NAME":"荆州市",
"ZIPCODE":"434000",
"PROVINCE_ID":17
},
{
"CITY_ID":178,
"CITY_NAME":"黄冈市",
"ZIPCODE":"438000",
"PROVINCE_ID":17
},
{
"CITY_ID":179,
"CITY_NAME":"咸宁市",
"ZIPCODE":"437000",
"PROVINCE_ID":17
},
{
"CITY_ID":180,
"CITY_NAME":"随州市",
"ZIPCODE":"441300",
"PROVINCE_ID":17
},
{
"CITY_ID":181,
"CITY_NAME":"恩施土家族苗族自治州",
"ZIPCODE":"445000",
"PROVINCE_ID":17
},
{
"CITY_ID":182,
"CITY_NAME":"神农架",
"ZIPCODE":"442400",
"PROVINCE_ID":17
},
{
"CITY_ID":183,
"CITY_NAME":"长沙市",
"ZIPCODE":"410000",
"PROVINCE_ID":18
},
{
"CITY_ID":184,
"CITY_NAME":"株洲市",
"ZIPCODE":"412000",
"PROVINCE_ID":18
},
{
"CITY_ID":185,
"CITY_NAME":"湘潭市",
"ZIPCODE":"411100",
"PROVINCE_ID":18
},
{
"CITY_ID":186,
"CITY_NAME":"衡阳市",
"ZIPCODE":"421000",
"PROVINCE_ID":18
},
{
"CITY_ID":187,
"CITY_NAME":"邵阳市",
"ZIPCODE":"422000",
"PROVINCE_ID":18
},
{
"CITY_ID":188,
"CITY_NAME":"岳阳市",
"ZIPCODE":"414000",
"PROVINCE_ID":18
},
{
"CITY_ID":189,
"CITY_NAME":"常德市",
"ZIPCODE":"415000",
"PROVINCE_ID":18
},
{
"CITY_ID":190,
"CITY_NAME":"张家界市",
"ZIPCODE":"427000",
"PROVINCE_ID":18
},
{
"CITY_ID":191,
"CITY_NAME":"益阳市",
"ZIPCODE":"413000",
"PROVINCE_ID":18
},
{
"CITY_ID":192,
"CITY_NAME":"郴州市",
"ZIPCODE":"423000",
"PROVINCE_ID":18
},
{
"CITY_ID":193,
"CITY_NAME":"永州市",
"ZIPCODE":"425000",
"PROVINCE_ID":18
},
{
"CITY_ID":194,
"CITY_NAME":"怀化市",
"ZIPCODE":"418000",
"PROVINCE_ID":18
},
{
"CITY_ID":195,
"CITY_NAME":"娄底市",
"ZIPCODE":"417000",
"PROVINCE_ID":18
},
{
"CITY_ID":196,
"CITY_NAME":"湘西土家族苗族自治州",
"ZIPCODE":"416000",
"PROVINCE_ID":18
},
{
"CITY_ID":197,
"CITY_NAME":"广州市",
"ZIPCODE":"510000",
"PROVINCE_ID":19
},
{
"CITY_ID":198,
"CITY_NAME":"韶关市",
"ZIPCODE":"521000",
"PROVINCE_ID":19
},
{
"CITY_ID":199,
"CITY_NAME":"深圳市",
"ZIPCODE":"518000",
"PROVINCE_ID":19
},
{
"CITY_ID":200,
"CITY_NAME":"珠海市",
"ZIPCODE":"519000",
"PROVINCE_ID":19
},
{
"CITY_ID":201,
"CITY_NAME":"汕头市",
"ZIPCODE":"515000",
"PROVINCE_ID":19
},
{
"CITY_ID":202,
"CITY_NAME":"佛山市",
"ZIPCODE":"528000",
"PROVINCE_ID":19
},
{
"CITY_ID":203,
"CITY_NAME":"江门市",
"ZIPCODE":"529000",
"PROVINCE_ID":19
},
{
"CITY_ID":204,
"CITY_NAME":"湛江市",
"ZIPCODE":"524000",
"PROVINCE_ID":19
},
{
"CITY_ID":205,
"CITY_NAME":"茂名市",
"ZIPCODE":"525000",
"PROVINCE_ID":19
},
{
"CITY_ID":206,
"CITY_NAME":"肇庆市",
"ZIPCODE":"526000",
"PROVINCE_ID":19
},
{
"CITY_ID":207,
"CITY_NAME":"惠州市",
"ZIPCODE":"516000",
"PROVINCE_ID":19
},
{
"CITY_ID":208,
"CITY_NAME":"梅州市",
"ZIPCODE":"514000",
"PROVINCE_ID":19
},
{
"CITY_ID":209,
"CITY_NAME":"汕尾市",
"ZIPCODE":"516600",
"PROVINCE_ID":19
},
{
"CITY_ID":210,
"CITY_NAME":"河源市",
"ZIPCODE":"517000",
"PROVINCE_ID":19
},
{
"CITY_ID":211,
"CITY_NAME":"阳江市",
"ZIPCODE":"529500",
"PROVINCE_ID":19
},
{
"CITY_ID":212,
"CITY_NAME":"清远市",
"ZIPCODE":"511500",
"PROVINCE_ID":19
},
{
"CITY_ID":213,
"CITY_NAME":"东莞市",
"ZIPCODE":"511700",
"PROVINCE_ID":19
},
{
"CITY_ID":214,
"CITY_NAME":"中山市",
"ZIPCODE":"528400",
"PROVINCE_ID":19
},
{
"CITY_ID":215,
"CITY_NAME":"潮州市",
"ZIPCODE":"515600",
"PROVINCE_ID":19
},
{
"CITY_ID":216,
"CITY_NAME":"揭阳市",
"ZIPCODE":"522000",
"PROVINCE_ID":19
},
{
"CITY_ID":217,
"CITY_NAME":"云浮市",
"ZIPCODE":"527300",
"PROVINCE_ID":19
},
{
"CITY_ID":218,
"CITY_NAME":"南宁市",
"ZIPCODE":"530000",
"PROVINCE_ID":20
},
{
"CITY_ID":219,
"CITY_NAME":"柳州市",
"ZIPCODE":"545000",
"PROVINCE_ID":20
},
{
"CITY_ID":220,
"CITY_NAME":"桂林市",
"ZIPCODE":"541000",
"PROVINCE_ID":20
},
{
"CITY_ID":221,
"CITY_NAME":"梧州市",
"ZIPCODE":"543000",
"PROVINCE_ID":20
},
{
"CITY_ID":222,
"CITY_NAME":"北海市",
"ZIPCODE":"536000",
"PROVINCE_ID":20
},
{
"CITY_ID":223,
"CITY_NAME":"防城港市",
"ZIPCODE":"538000",
"PROVINCE_ID":20
},
{
"CITY_ID":224,
"CITY_NAME":"钦州市",
"ZIPCODE":"535000",
"PROVINCE_ID":20
},
{
"CITY_ID":225,
"CITY_NAME":"贵港市",
"ZIPCODE":"537100",
"PROVINCE_ID":20
},
{
"CITY_ID":226,
"CITY_NAME":"玉林市",
"ZIPCODE":"537000",
"PROVINCE_ID":20
},
{
"CITY_ID":227,
"CITY_NAME":"百色市",
"ZIPCODE":"533000",
"PROVINCE_ID":20
},
{
"CITY_ID":228,
"CITY_NAME":"贺州市",
"ZIPCODE":"542800",
"PROVINCE_ID":20
},
{
"CITY_ID":229,
"CITY_NAME":"河池市",
"ZIPCODE":"547000",
"PROVINCE_ID":20
},
{
"CITY_ID":230,
"CITY_NAME":"来宾市",
"ZIPCODE":"546100",
"PROVINCE_ID":20
},
{
"CITY_ID":231,
"CITY_NAME":"崇左市",
"ZIPCODE":"532200",
"PROVINCE_ID":20
},
{
"CITY_ID":232,
"CITY_NAME":"海口市",
"ZIPCODE":"570000",
"PROVINCE_ID":21
},
{
"CITY_ID":233,
"CITY_NAME":"三亚市",
"ZIPCODE":"572000",
"PROVINCE_ID":21
},
{
"CITY_ID":234,
"CITY_NAME":"重庆市",
"ZIPCODE":"400000",
"PROVINCE_ID":22
},
{
"CITY_ID":235,
"CITY_NAME":"成都市",
"ZIPCODE":"610000",
"PROVINCE_ID":23
},
{
"CITY_ID":236,
"CITY_NAME":"自贡市",
"ZIPCODE":"643000",
"PROVINCE_ID":23
},
{
"CITY_ID":237,
"CITY_NAME":"攀枝花市",
"ZIPCODE":"617000",
"PROVINCE_ID":23
},
{
"CITY_ID":238,
"CITY_NAME":"泸州市",
"ZIPCODE":"646100",
"PROVINCE_ID":23
},
{
"CITY_ID":239,
"CITY_NAME":"德阳市",
"ZIPCODE":"618000",
"PROVINCE_ID":23
},
{
"CITY_ID":240,
"CITY_NAME":"绵阳市",
"ZIPCODE":"621000",
"PROVINCE_ID":23
},
{
"CITY_ID":241,
"CITY_NAME":"广元市",
"ZIPCODE":"628000",
"PROVINCE_ID":23
},
{
"CITY_ID":242,
"CITY_NAME":"遂宁市",
"ZIPCODE":"629000",
"PROVINCE_ID":23
},
{
"CITY_ID":243,
"CITY_NAME":"内江市",
"ZIPCODE":"641000",
"PROVINCE_ID":23
},
{
"CITY_ID":244,
"CITY_NAME":"乐山市",
"ZIPCODE":"614000",
"PROVINCE_ID":23
},
{
"CITY_ID":245,
"CITY_NAME":"南充市",
"ZIPCODE":"637000",
"PROVINCE_ID":23
},
{
"CITY_ID":246,
"CITY_NAME":"眉山市",
"ZIPCODE":"612100",
"PROVINCE_ID":23
},
{
"CITY_ID":247,
"CITY_NAME":"宜宾市",
"ZIPCODE":"644000",
"PROVINCE_ID":23
},
{
"CITY_ID":248,
"CITY_NAME":"广安市",
"ZIPCODE":"638000",
"PROVINCE_ID":23
},
{
"CITY_ID":249,
"CITY_NAME":"达州市",
"ZIPCODE":"635000",
"PROVINCE_ID":23
},
{
"CITY_ID":250,
"CITY_NAME":"雅安市",
"ZIPCODE":"625000",
"PROVINCE_ID":23
},
{
"CITY_ID":251,
"CITY_NAME":"巴中市",
"ZIPCODE":"635500",
"PROVINCE_ID":23
},
{
"CITY_ID":252,
"CITY_NAME":"资阳市",
"ZIPCODE":"641300",
"PROVINCE_ID":23
},
{
"CITY_ID":253,
"CITY_NAME":"阿坝藏族羌族自治州",
"ZIPCODE":"624600",
"PROVINCE_ID":23
},
{
"CITY_ID":254,
"CITY_NAME":"甘孜藏族自治州",
"ZIPCODE":"626000",
"PROVINCE_ID":23
},
{
"CITY_ID":255,
"CITY_NAME":"凉山彝族自治州",
"ZIPCODE":"615000",
"PROVINCE_ID":23
},
{
"CITY_ID":256,
"CITY_NAME":"贵阳市",
"ZIPCODE":"55000",
"PROVINCE_ID":24
},
{
"CITY_ID":257,
"CITY_NAME":"六盘水市",
"ZIPCODE":"553000",
"PROVINCE_ID":24
},
{
"CITY_ID":258,
"CITY_NAME":"遵义市",
"ZIPCODE":"563000",
"PROVINCE_ID":24
},
{
"CITY_ID":259,
"CITY_NAME":"安顺市",
"ZIPCODE":"561000",
"PROVINCE_ID":24
},
{
"CITY_ID":260,
"CITY_NAME":"铜仁地区",
"ZIPCODE":"554300",
"PROVINCE_ID":24
},
{
"CITY_ID":261,
"CITY_NAME":"黔西南布依族苗族自治州",
"ZIPCODE":"551500",
"PROVINCE_ID":24
},
{
"CITY_ID":262,
"CITY_NAME":"毕节地区",
"ZIPCODE":"551700",
"PROVINCE_ID":24
},
{
"CITY_ID":263,
"CITY_NAME":"黔东南苗族侗族自治州",
"ZIPCODE":"551500",
"PROVINCE_ID":24
},
{
"CITY_ID":264,
"CITY_NAME":"黔南布依族苗族自治州",
"ZIPCODE":"550100",
"PROVINCE_ID":24
},
{
"CITY_ID":265,
"CITY_NAME":"昆明市",
"ZIPCODE":"650000",
"PROVINCE_ID":25
},
{
"CITY_ID":266,
"CITY_NAME":"曲靖市",
"ZIPCODE":"655000",
"PROVINCE_ID":25
},
{
"CITY_ID":267,
"CITY_NAME":"玉溪市",
"ZIPCODE":"653100",
"PROVINCE_ID":25
},
{
"CITY_ID":268,
"CITY_NAME":"保山市",
"ZIPCODE":"678000",
"PROVINCE_ID":25
},
{
"CITY_ID":269,
"CITY_NAME":"昭通市",
"ZIPCODE":"657000",
"PROVINCE_ID":25
},
{
"CITY_ID":270,
"CITY_NAME":"丽江市",
"ZIPCODE":"674100",
"PROVINCE_ID":25
},
{
"CITY_ID":271,
"CITY_NAME":"思茅市",
"ZIPCODE":"665000",
"PROVINCE_ID":25
},
{
"CITY_ID":272,
"CITY_NAME":"临沧市",
"ZIPCODE":"677000",
"PROVINCE_ID":25
},
{
"CITY_ID":273,
"CITY_NAME":"楚雄彝族自治州",
"ZIPCODE":"675000",
"PROVINCE_ID":25
},
{
"CITY_ID":274,
"CITY_NAME":"红河哈尼族彝族自治州",
"ZIPCODE":"654400",
"PROVINCE_ID":25
},
{
"CITY_ID":275,
"CITY_NAME":"文山壮族苗族自治州",
"ZIPCODE":"663000",
"PROVINCE_ID":25
},
{
"CITY_ID":276,
"CITY_NAME":"西双版纳傣族自治州",
"ZIPCODE":"666200",
"PROVINCE_ID":25
},
{
"CITY_ID":277,
"CITY_NAME":"大理白族自治州",
"ZIPCODE":"671000",
"PROVINCE_ID":25
},
{
"CITY_ID":278,
"CITY_NAME":"德宏傣族景颇族自治州",
"ZIPCODE":"678400",
"PROVINCE_ID":25
},
{
"CITY_ID":279,
"CITY_NAME":"怒江傈僳族自治州",
"ZIPCODE":"671400",
"PROVINCE_ID":25
},
{
"CITY_ID":280,
"CITY_NAME":"迪庆藏族自治州",
"ZIPCODE":"674400",
"PROVINCE_ID":25
},
{
"CITY_ID":281,
"CITY_NAME":"拉萨市",
"ZIPCODE":"850000",
"PROVINCE_ID":26
},
{
"CITY_ID":282,
"CITY_NAME":"昌都地区",
"ZIPCODE":"854000",
"PROVINCE_ID":26
},
{
"CITY_ID":283,
"CITY_NAME":"山南地区",
"ZIPCODE":"856000",
"PROVINCE_ID":26
},
{
"CITY_ID":284,
"CITY_NAME":"日喀则地区",
"ZIPCODE":"857000",
"PROVINCE_ID":26
},
{
"CITY_ID":285,
"CITY_NAME":"那曲地区",
"ZIPCODE":"852000",
"PROVINCE_ID":26
},
{
"CITY_ID":286,
"CITY_NAME":"阿里地区",
"ZIPCODE":"859100",
"PROVINCE_ID":26
},
{
"CITY_ID":287,
"CITY_NAME":"林芝地区",
"ZIPCODE":"860100",
"PROVINCE_ID":26
},
{
"CITY_ID":288,
"CITY_NAME":"西安市",
"ZIPCODE":"710000",
"PROVINCE_ID":27
},
{
"CITY_ID":289,
"CITY_NAME":"铜川市",
"ZIPCODE":"727000",
"PROVINCE_ID":27
},
{
"CITY_ID":290,
"CITY_NAME":"宝鸡市",
"ZIPCODE":"721000",
"PROVINCE_ID":27
},
{
"CITY_ID":291,
"CITY_NAME":"咸阳市",
"ZIPCODE":"712000",
"PROVINCE_ID":27
},
{
"CITY_ID":292,
"CITY_NAME":"渭南市",
"ZIPCODE":"714000",
"PROVINCE_ID":27
},
{
"CITY_ID":293,
"CITY_NAME":"延安市",
"ZIPCODE":"716000",
"PROVINCE_ID":27
},
{
"CITY_ID":294,
"CITY_NAME":"汉中市",
"ZIPCODE":"723000",
"PROVINCE_ID":27
},
{
"CITY_ID":295,
"CITY_NAME":"榆林市",
"ZIPCODE":"719000",
"PROVINCE_ID":27
},
{
"CITY_ID":296,
"CITY_NAME":"安康市",
"ZIPCODE":"725000",
"PROVINCE_ID":27
},
{
"CITY_ID":297,
"CITY_NAME":"商洛市",
"ZIPCODE":"711500",
"PROVINCE_ID":27
},
{
"CITY_ID":298,
"CITY_NAME":"兰州市",
"ZIPCODE":"730000",
"PROVINCE_ID":28
},
{
"CITY_ID":299,
"CITY_NAME":"嘉峪关市",
"ZIPCODE":"735100",
"PROVINCE_ID":28
},
{
"CITY_ID":300,
"CITY_NAME":"金昌市",
"ZIPCODE":"737100",
"PROVINCE_ID":28
},
{
"CITY_ID":301,
"CITY_NAME":"白银市",
"ZIPCODE":"730900",
"PROVINCE_ID":28
},
{
"CITY_ID":302,
"CITY_NAME":"天水市",
"ZIPCODE":"741000",
"PROVINCE_ID":28
},
{
"CITY_ID":303,
"CITY_NAME":"武威市",
"ZIPCODE":"733000",
"PROVINCE_ID":28
},
{
"CITY_ID":304,
"CITY_NAME":"张掖市",
"ZIPCODE":"734000",
"PROVINCE_ID":28
},
{
"CITY_ID":305,
"CITY_NAME":"平凉市",
"ZIPCODE":"744000",
"PROVINCE_ID":28
},
{
"CITY_ID":306,
"CITY_NAME":"酒泉市",
"ZIPCODE":"735000",
"PROVINCE_ID":28
},
{
"CITY_ID":307,
"CITY_NAME":"庆阳市",
"ZIPCODE":"744500",
"PROVINCE_ID":28
},
{
"CITY_ID":308,
"CITY_NAME":"定西市",
"ZIPCODE":"743000",
"PROVINCE_ID":28
},
{
"CITY_ID":309,
"CITY_NAME":"陇南市",
"ZIPCODE":"742100",
"PROVINCE_ID":28
},
{
"CITY_ID":310,
"CITY_NAME":"临夏回族自治州",
"ZIPCODE":"731100",
"PROVINCE_ID":28
},
{
"CITY_ID":311,
"CITY_NAME":"甘南藏族自治州",
"ZIPCODE":"747000",
"PROVINCE_ID":28
},
{
"CITY_ID":312,
"CITY_NAME":"西宁市",
"ZIPCODE":"810000",
"PROVINCE_ID":29
},
{
"CITY_ID":313,
"CITY_NAME":"海东地区",
"ZIPCODE":"810600",
"PROVINCE_ID":29
},
{
"CITY_ID":314,
"CITY_NAME":"海北藏族自治州",
"ZIPCODE":"810300",
"PROVINCE_ID":29
},
{
"CITY_ID":315,
"CITY_NAME":"黄南藏族自治州",
"ZIPCODE":"811300",
"PROVINCE_ID":29
},
{
"CITY_ID":316,
"CITY_NAME":"海南藏族自治州",
"ZIPCODE":"813000",
"PROVINCE_ID":29
},
{
"CITY_ID":317,
"CITY_NAME":"果洛藏族自治州",
"ZIPCODE":"814000",
"PROVINCE_ID":29
},
{
"CITY_ID":318,
"CITY_NAME":"玉树藏族自治州",
"ZIPCODE":"815000",
"PROVINCE_ID":29
},
{
"CITY_ID":319,
"CITY_NAME":"海西蒙古族藏族自治州",
"ZIPCODE":"817000",
"PROVINCE_ID":29
},
{
"CITY_ID":320,
"CITY_NAME":"银川市",
"ZIPCODE":"750000",
"PROVINCE_ID":30
},
{
"CITY_ID":321,
"CITY_NAME":"石嘴山市",
"ZIPCODE":"753000",
"PROVINCE_ID":30
},
{
"CITY_ID":322,
"CITY_NAME":"吴忠市",
"ZIPCODE":"751100",
"PROVINCE_ID":30
},
{
"CITY_ID":323,
"CITY_NAME":"固原市",
"ZIPCODE":"756000",
"PROVINCE_ID":30
},
{
"CITY_ID":324,
"CITY_NAME":"中卫市",
"ZIPCODE":"751700",
"PROVINCE_ID":30
},
{
"CITY_ID":325,
"CITY_NAME":"乌鲁木齐市",
"ZIPCODE":"830000",
"PROVINCE_ID":31
},
{
"CITY_ID":326,
"CITY_NAME":"克拉玛依市",
"ZIPCODE":"834000",
"PROVINCE_ID":31
},
{
"CITY_ID":327,
"CITY_NAME":"吐鲁番地区",
"ZIPCODE":"838000",
"PROVINCE_ID":31
},
{
"CITY_ID":328,
"CITY_NAME":"哈密地区",
"ZIPCODE":"839000",
"PROVINCE_ID":31
},
{
"CITY_ID":329,
"CITY_NAME":"昌吉回族自治州",
"ZIPCODE":"831100",
"PROVINCE_ID":31
},
{
"CITY_ID":330,
"CITY_NAME":"博尔塔拉蒙古自治州",
"ZIPCODE":"833400",
"PROVINCE_ID":31
},
{
"CITY_ID":331,
"CITY_NAME":"巴音郭楞蒙古自治州",
"ZIPCODE":"841000",
"PROVINCE_ID":31
},
{
"CITY_ID":332,
"CITY_NAME":"阿克苏地区",
"ZIPCODE":"843000",
"PROVINCE_ID":31
},
{
"CITY_ID":333,
"CITY_NAME":"克孜勒苏柯尔克孜自治州",
"ZIPCODE":"835600",
"PROVINCE_ID":31
},
{
"CITY_ID":334,
"CITY_NAME":"喀什地区",
"ZIPCODE":"844000",
"PROVINCE_ID":31
},
{
"CITY_ID":335,
"CITY_NAME":"和田地区",
"ZIPCODE":"848000",
"PROVINCE_ID":31
},
{
"CITY_ID":336,
"CITY_NAME":"伊犁哈萨克自治州",
"ZIPCODE":"833200",
"PROVINCE_ID":31
},
{
"CITY_ID":337,
"CITY_NAME":"塔城地区",
"ZIPCODE":"834700",
"PROVINCE_ID":31
},
{
"CITY_ID":338,
"CITY_NAME":"阿勒泰地区",
"ZIPCODE":"836500",
"PROVINCE_ID":31
},
{
"CITY_ID":339,
"CITY_NAME":"石河子市",
"ZIPCODE":"832000",
"PROVINCE_ID":31
},
{
"CITY_ID":340,
"CITY_NAME":"阿拉尔市",
"ZIPCODE":"843300",
"PROVINCE_ID":31
},
{
"CITY_ID":341,
"CITY_NAME":"图木舒克市",
"ZIPCODE":"843900",
"PROVINCE_ID":31
},
{
"CITY_ID":342,
"CITY_NAME":"五家渠市",
"ZIPCODE":"831300",
"PROVINCE_ID":31
},
{
"CITY_ID":343,
"CITY_NAME":"香港特别行政区",
"ZIPCODE":"000000",
"PROVINCE_ID":32
},
{
"CITY_ID":344,
"CITY_NAME":"澳门特别行政区",
"ZIPCODE":"000000",
"PROVINCE_ID":33
},
{
"CITY_ID":345,
"CITY_NAME":"台湾省",
"ZIPCODE":"000000",
"PROVINCE_ID":34
}
]
}